start=new Date('2022-12-14T00:00:00.000Z').valueOf();
sats=[{"INCLINATION":"53.0559","EPHEMERIS_TYPE":"0","RCS_SIZE":"LARGE","CENTER_NAME":"EARTH","TLE_LINE2":"2 48573  53.0559  38.3815 0001885  56.1248 303.9920 15.06397140 87470","FILE":"3697674","APOAPSIS":"548.528","REF_FRAME":"TEME","MEAN_MOTION_DOT":"-0.00000679","DECAY_DATE":null,"LAUNCH_DATE":"2021-05-15","PERIAPSIS":"545.917","MEAN_MOTION_DDOT":"0.0000000000000","MEAN_MOTION":"15.06397140","CLASSIFICATION_TYPE":"U","MEAN_ANOMALY":"303.9920","OBJECT_TYPE":"PAYLOAD","ELEMENT_SET_NO":"999","REV_AT_EPOCH":"8747","COUNTRY_CODE":"US","ARG_OF_PERICENTER":"56.1248","TIME_SYSTEM":"UTC","OBJECT_ID":"2021-041W","NORAD_CAT_ID":"48573","GP_ID":"220291024","SITE":"AFETR","MEAN_ELEMENT_THEORY":"SGP4","BSTAR":"-0.00002668000000","EPOCH":"2022-12-13T13:33:16.840800","ECCENTRICITY":"0.00018850","SEMIMAJOR_AXIS":"6925.357","OBJECT_NAME":"STARLINK-2224","RA_OF_ASC_NODE":"38.3815","PERIOD":"95.592","TLE_LINE1":"1 48573U 21041W   22347.56477825 -.00000679  00000-0 -26680-4 0  9997"},{"LAUNCH_DATE":"2021-05-15","CLASSIFICATION_TYPE":"U","MEAN_ANOMALY":"317.5446","ELEMENT_SET_NO":"999","OBJECT_TYPE":"PAYLOAD","PERIAPSIS":"545.717","MEAN_MOTION":"15.06403230","MEAN_MOTION_DDOT":"0.0000000000000","TLE_LINE2":"2 48574  53.0557   8.9125 0002147  42.5710 317.5446 15.06403230 87822","INCLINATION":"53.0557","EPHEMERIS_TYPE":"0","RCS_SIZE":"LARGE","CENTER_NAME":"EARTH","MEAN_MOTION_DOT":"0.00002666","REF_FRAME":"TEME","DECAY_DATE":null,"FILE":"3697674","APOAPSIS":"548.691","SEMIMAJOR_AXIS":"6925.339","OBJECT_NAME":"STARLINK-2225","EPOCH":"2022-12-13T11:13:57.842112","ECCENTRICITY":"0.00021470","RA_OF_ASC_NODE":"8.9125","PERIOD":"95.592","TLE_LINE1":"1 48574U 21041X   22347.46803058  .00002666  00000-0  19777-3 0  9992","NORAD_CAT_ID":"48574","GP_ID":"220290519","SITE":"AFETR","REV_AT_EPOCH":"8782","COUNTRY_CODE":"US","TIME_SYSTEM":"UTC","ARG_OF_PERICENTER":"42.5710","OBJECT_ID":"2021-041X","MEAN_ELEMENT_THEORY":"SGP4","BSTAR":"0.00019777000000"},{"PERIOD":"95.592","RA_OF_ASC_NODE":"357.8614","TLE_LINE1":"1 48575U 21041Y   22347.74910825  .00001690  00000-0  13235-3 0  9994","EPOCH":"2022-12-13T17:58:42.952800","ECCENTRICITY":"0.00017070","SEMIMAJOR_AXIS":"6925.338","OBJECT_NAME":"STARLINK-2227","MEAN_ELEMENT_THEORY":"SGP4","BSTAR":"0.00013235000000","COUNTRY_CODE":"US","REV_AT_EPOCH":"8807","OBJECT_ID":"2021-041Y","ARG_OF_PERICENTER":"48.7416","TIME_SYSTEM":"UTC","GP_ID":"220291022","NORAD_CAT_ID":"48575","SITE":"AFETR","PERIAPSIS":"546.021","MEAN_MOTION_DDOT":"0.0000000000000","MEAN_MOTION":"15.06403312","CLASSIFICATION_TYPE":"U","MEAN_ANOMALY":"311.3720","ELEMENT_SET_NO":"999","OBJECT_TYPE":"PAYLOAD","LAUNCH_DATE":"2021-05-15","FILE":"3697674","APOAPSIS":"548.386","DECAY_DATE":null,"MEAN_MOTION_DOT":"0.00001690","REF_FRAME":"TEME","INCLINATION":"53.0553","RCS_SIZE":"LARGE","CENTER_NAME":"EARTH","EPHEMERIS_TYPE":"0","TLE_LINE2":"2 48575  53.0553 357.8614 0001707  48.7416 311.3720 15.06403312 88076"},{"LAUNCH_DATE":"2021-05-15","CLASSIFICATION_TYPE":"U","MEAN_ANOMALY":"325.8484","ELEMENT_SET_NO":"999","OBJECT_TYPE":"PAYLOAD","PERIAPSIS":"545.611","MEAN_MOTION_DDOT":"0.0000000000000","MEAN_MOTION":"15.06396604","TLE_LINE2":"2 48576  53.0554  13.4616 0002329  34.2655 325.8484 15.06396604 87386","INCLINATION":"53.0554","EPHEMERIS_TYPE":"0","RCS_SIZE":"LARGE","CENTER_NAME":"EARTH","MEAN_MOTION_DOT":"0.00000847","REF_FRAME":"TEME","DECAY_DATE":null,"FILE":"3697190","APOAPSIS":"548.837","SEMIMAJOR_AXIS":"6925.359","OBJECT_NAME":"STARLINK-2228","EPOCH":"2022-12-13T13:12:42.505344","ECCENTRICITY":"0.00023290","PERIOD":"95.592","RA_OF_ASC_NODE":"13.4616","TLE_LINE1":"1 48576U 21041Z   22347.55049196  .00000847  00000-0  75756-4 0  9998","GP_ID":"220276540","NORAD_CAT_ID":"48576","SITE":"AFETR","REV_AT_EPOCH":"8738","COUNTRY_CODE":"US","TIME_SYSTEM":"UTC","ARG_OF_PERICENTER":"34.2655","OBJECT_ID":"2021-041Z","MEAN_ELEMENT_THEORY":"SGP4","BSTAR":"0.00007575600000"},{"TLE_LINE2":"2 48577  53.0567  38.4148 0002209  34.8553 325.2580 15.06404923 87024","EPHEMERIS_TYPE":"0","CENTER_NAME":"EARTH","RCS_SIZE":"LARGE","INCLINATION":"53.0567","MEAN_MOTION_DOT":"-0.00000543","REF_FRAME":"TEME","DECAY_DATE":null,"APOAPSIS":"548.728","FILE":"3697190","LAUNCH_DATE":"2021-05-15","OBJECT_TYPE":"PAYLOAD","ELEMENT_SET_NO":"999","CLASSIFICATION_TYPE":"U","MEAN_ANOMALY":"325.2580","MEAN_MOTION_DDOT":"0.0000000000000","MEAN_MOTION":"15.06404923","PERIAPSIS":"545.669","SITE":"AFETR","NORAD_CAT_ID":"48577","GP_ID":"220276790","TIME_SYSTEM":"UTC","ARG_OF_PERICENTER":"34.8553","OBJECT_ID":"2021-041AA","REV_AT_EPOCH":"8702","COUNTRY_CODE":"US","BSTAR":"-0.00001756400000","MEAN_ELEMENT_THEORY":"SGP4","OBJECT_NAME":"STARLINK-2231","SEMIMAJOR_AXIS":"6925.333","ECCENTRICITY":"0.00022090","EPOCH":"2022-12-13T13:22:39.823968","TLE_LINE1":"1 48577U 21041AA  22347.55740537 -.00000543  00000-0 -17564-4 0  9994","RA_OF_ASC_NODE":"38.4148","PERIOD":"95.592"},{"ECCENTRICITY":"0.00022790","EPOCH":"2022-12-13T10:54:08.170272","OBJECT_NAME":"STARLINK-2232","SEMIMAJOR_AXIS":"6925.338","TLE_LINE1":"1 48578U 21041AB  22347.45426123  .00003785  00000-0  27285-3 0  9995","PERIOD":"95.592","RA_OF_ASC_NODE":"39.4050","OBJECT_ID":"2021-041AB","TIME_SYSTEM":"UTC","ARG_OF_PERICENTER":"43.1621","COUNTRY_CODE":"US","REV_AT_EPOCH":"8700","SITE":"AFETR","NORAD_CAT_ID":"48578","GP_ID":"220277542","BSTAR":"0.00027285000000","MEAN_ELEMENT_THEORY":"SGP4","LAUNCH_DATE":"2021-05-15","MEAN_MOTION":"15.06403514","MEAN_MOTION_DDOT":"0.0000000000000","PERIAPSIS":"545.625","ELEMENT_SET_NO":"999","OBJECT_TYPE":"PAYLOAD","MEAN_ANOMALY":"316.9546","CLASSIFICATION_TYPE":"U","CENTER_NAME":"EARTH","RCS_SIZE":"LARGE","EPHEMERIS_TYPE":"0","INCLINATION":"53.0542","TLE_LINE2":"2 48578  53.0542  39.4050 0002279  43.1621 316.9546 15.06403514 87009","APOAPSIS":"548.781","FILE":"3697190","DECAY_DATE":null,"MEAN_MOTION_DOT":"0.00003785","REF_FRAME":"TEME"},{"OBJECT_NAME":"STARLINK-2233","SEMIMAJOR_AXIS":"6925.331","ECCENTRICITY":"0.00020570","EPOCH":"2022-12-13T09:55:40.008864","TLE_LINE1":"1 48579U 21041AC  22347.41365751  .00000439  00000-0  48356-4 0  9997","PERIOD":"95.592","RA_OF_ASC_NODE":"39.0750","SITE":"AFETR","NORAD_CAT_ID":"48579","GP_ID":"220277780","OBJECT_ID":"2021-041AC","ARG_OF_PERICENTER":"48.1452","TIME_SYSTEM":"UTC","COUNTRY_CODE":"US","REV_AT_EPOCH":"8700","BSTAR":"0.00004835600000","MEAN_ELEMENT_THEORY":"SGP4","LAUNCH_DATE":"2021-05-15","ELEMENT_SET_NO":"999","OBJECT_TYPE":"PAYLOAD","MEAN_ANOMALY":"311.9712","CLASSIFICATION_TYPE":"U","MEAN_MOTION":"15.06405758","MEAN_MOTION_DDOT":"0.0000000000000","PERIAPSIS":"545.771","TLE_LINE2":"2 48579  53.0567  39.0750 0002057  48.1452 311.9712 15.06405758 87003","CENTER_NAME":"EARTH","RCS_SIZE":"LARGE","EPHEMERIS_TYPE":"0","INCLINATION":"53.0567","DECAY_DATE":null,"MEAN_MOTION_DOT":"0.00000439","REF_FRAME":"TEME","APOAPSIS":"548.620","FILE":"3697190"},{"FILE":"3697190","APOAPSIS":"548.616","MEAN_MOTION_DOT":"-0.00001039","REF_FRAME":"TEME","DECAY_DATE":null,"INCLINATION":"53.0554","EPHEMERIS_TYPE":"0","RCS_SIZE":"LARGE","CENTER_NAME":"EARTH","TLE_LINE2":"2 48580  53.0554  13.6210 0001946  51.7463 308.3700 15.06382210 87372","PERIAPSIS":"545.920","MEAN_MOTION_DDOT":"0.0000000000000","MEAN_MOTION":"15.06382210","MEAN_ANOMALY":"308.3700","CLASSIFICATION_TYPE":"U","ELEMENT_SET_NO":"999","OBJECT_TYPE":"PAYLOAD","LAUNCH_DATE":"2021-05-15","MEAN_ELEMENT_THEORY":"SGP4","BSTAR":"-0.00005088900000","REV_AT_EPOCH":"8737","COUNTRY_CODE":"US","ARG_OF_PERICENTER":"51.7463","TIME_SYSTEM":"UTC","OBJECT_ID":"2021-041AD","GP_ID":"220276041","NORAD_CAT_ID":"48580","SITE":"AFETR","PERIOD":"95.593","RA_OF_ASC_NODE":"13.6210","TLE_LINE1":"1 48580U 21041AD  22347.51270817 -.00001039  00000-0 -50889-4 0  9991","EPOCH":"2022-12-13T12:18:17.985888","ECCENTRICITY":"0.00019460","SEMIMAJOR_AXIS":"6925.403","OBJECT_NAME":"STARLINK-2234"},{"SEMIMAJOR_AXIS":"6925.331","OBJECT_NAME":"STARLINK-2235","EPOCH":"2022-12-13T17:44:43.303776","ECCENTRICITY":"0.00012790","PERIOD":"95.592","RA_OF_ASC_NODE":"2.5986","TLE_LINE1":"1 48581U 21041AE  22347.73939009  .00000456  00000-0  49489-4 0  9995","NORAD_CAT_ID":"48581","GP_ID":"220291020","SITE":"AFETR","COUNTRY_CODE":"US","REV_AT_EPOCH":"8800","OBJECT_ID":"2021-041AE","ARG_OF_PERICENTER":"100.7224","TIME_SYSTEM":"UTC","MEAN_ELEMENT_THEORY":"SGP4","BSTAR":"0.00004948900000","LAUNCH_DATE":"2021-05-15","MEAN_ANOMALY":"259.3909","CLASSIFICATION_TYPE":"U","ELEMENT_SET_NO":"999","OBJECT_TYPE":"PAYLOAD","PERIAPSIS":"546.310","MEAN_MOTION":"15.06405677","MEAN_MOTION_DDOT":"0.0000000000000","TLE_LINE2":"2 48581  53.0562   2.5986 0001279 100.7224 259.3909 15.06405677 88008","INCLINATION":"53.0562","CENTER_NAME":"EARTH","RCS_SIZE":"LARGE","EPHEMERIS_TYPE":"0","DECAY_DATE":null,"MEAN_MOTION_DOT":"0.00000456","REF_FRAME":"TEME","FILE":"3697674","APOAPSIS":"548.082"},{"ECCENTRICITY":"0.00020810","EPOCH":"2022-12-13T10:56:04.139808","OBJECT_NAME":"STARLINK-2236","SEMIMAJOR_AXIS":"6925.330","TLE_LINE1":"1 48582U 21041AF  22347.45560347  .00003839  00000-0  27648-3 0  9990","RA_OF_ASC_NODE":"4.0344","PERIOD":"95.592","ARG_OF_PERICENTER":"49.8680","TIME_SYSTEM":"UTC","OBJECT_ID":"2021-041AF","REV_AT_EPOCH":"8750","COUNTRY_CODE":"US","SITE":"AFETR","NORAD_CAT_ID":"48582","GP_ID":"220277043","BSTAR":"0.00027648000000","MEAN_ELEMENT_THEORY":"SGP4","LAUNCH_DATE":"2021-05-15","MEAN_MOTION":"15.06405894","MEAN_MOTION_DDOT":"0.0000000000000","PERIAPSIS":"545.754","OBJECT_TYPE":"PAYLOAD","ELEMENT_SET_NO":"999","MEAN_ANOMALY":"310.2491","CLASSIFICATION_TYPE":"U","EPHEMERIS_TYPE":"0","CENTER_NAME":"EARTH","RCS_SIZE":"LARGE","INCLINATION":"53.0554","TLE_LINE2":"2 48582  53.0554   4.0344 0002081  49.8680 310.2491 15.06405894 87504","APOAPSIS":"548.637","FILE":"3697190","MEAN_MOTION_DOT":"0.00003839","REF_FRAME":"TEME","DECAY_DATE":null}];
